DONGPO 02               
1 53452U 22098J   26164.99966420  .00113495  00000+0  78991-3 0  9993
2 53452  97.5515 295.9132 0002034 282.6019  77.5017 15.74035042214297
DONGPO 01               
1 53453U 22098K   26166.95911596  .00080655  00000+0  60823-3 0  9992
2 53453  97.5589 298.5709 0001772 236.2514 123.8580 15.72246921214569
STARLINK-4400           
1 53468U 22099D   26166.91569457 -.00000862  00000+0 -55755-4 0  9993
2 53468  97.3520 286.0006 0001295 142.5630 217.5688 15.05655701210751
STARLINK-4621           
1 53676U 22105AE  26166.91846789 -.00001410  00000+0 -93721-4 0  9993
2 53676  97.3566  46.0166 0002598  82.4587 277.6935 15.05657535208018
SHERPA-LTC2             
1 53754U 22107BG  26166.48621245  .00004663  00000+0  24279-3 0  9994
2 53754  53.2349 227.5314 0394004 221.2720 135.7852 14.69697907202296
CENTISPACE-1 S3         
1 53757U 22108A   26166.97645155  .00000403  00000+0  11920-3 0  9995
2 53757  53.5336  60.2654 0009298 351.8082   8.2740 14.61251403201351
CENTISPACE-1 S4         
1 53758U 22108B   26166.96130324  .00000575  00000+0  15160-3 0  9992
2 53758  53.5311  57.8517 0008490 339.8125  20.2514 14.61932214201384
BLUEWALKER-3            
1 53807U 22111AL  26166.94529829  .00005087  00000+0  14316-3 0  9996
2 53807  53.2299  39.8022 0006450 157.0926 203.0368 15.38258146210013
YUNHAI-1 03             
1 53877U 22115A   26167.00021772  .00000276  00000+0  11752-3 0  9995
2 53877  98.5531 165.1623 0005813  58.5870 301.5882 14.32717301195345
CENTISPACE-1 S5         
1 54020U 22126A   26166.92217467  .00000460  00000+0  12566-3 0  9995
2 54020  54.9978 218.0227 0014562  70.1037 290.1524 14.63012790196858
CENTISPACE-1 S6         
1 54021U 22126B   26166.91472125  .00000271  00000+0  90462-4 0  9991
2 54021  54.9982 219.9118 0016411  70.1386 290.1375 14.62289789196818
OTB-3-GAZELLE           
1 54023U 22127A   26166.95009263  .00000113  00000+0  47031-4 0  9996
2 54023  98.3943 158.6733 0012889 186.9573 173.1440 14.42674047194184
ASO-S                   
1 54029U 22129A   26166.94456024  .00000165  00000+0  51833-4 0  9996
2 54029  98.2747 172.0428 0015762  96.1905 264.1087 14.52061219195244
HJ-2E                   
1 54035U 22132A   26166.97032796  .00006979  00000+0  30422-3 0  9995
2 54035  97.3793 171.3685 0020702  19.3375 340.8643 15.22299988204231
COSMOS 2561             
1 54109U 22137A   26166.48534792  .00010701  00000+0  18110-3 0  9999
2 54109  96.9179 225.5499 0010870  41.8672 318.3410 15.51664501206082
GONETS-M 23             
1 54150U 22139A   26166.89431985  .00000033  00000+0  16765-3 0  9993
2 54150  82.5073 349.0980 0020843 222.6321 137.3141 12.42890823165483
GONETS-M 24             
1 54151U 22139B   26166.94791023  .00000019  00000+0  64105-4 0  9998
2 54151  82.4989 348.1254 0015977 232.8634 127.0987 12.42891432165497
GONETS-M 25             
1 54152U 22139C   26166.93429465  .00000023  00000+0  95404-4 0  9997
2 54152  82.5055 348.8195 0019886 231.6874 128.2418 12.42890015165498
SKIF-D                  
1 54153U 22139D   26166.25817278  .00000006  00000+0  00000+0 0  9990
2 54153  89.9511  96.6682 0007386 200.0238 159.9932  5.00428011 64019
MATS                    
1 54227U 22147A   26166.98540086  .00002333  00000+0  16709-3 0  9993
2 54227  97.6818 168.5875 0011906 195.0041 165.0834 15.05349467197589
JILIN-1 GAOFEN 03D54    
1 54254U 22155D   26166.20867375  .00317969  43065-4  72720-3 0  9992
2 54254  97.6113 319.0559 0005279 263.8870  96.1805 15.97367336199983
EOS-6 (OCEANSAT-3)      
1 54361U 22158A   26166.98718282  .00000235  00000+0  76708-4 0  9994
2 54361  98.3539 265.1972 0001276  50.0822 310.0482 14.46999847187660
DONGPO 09               
1 54685U 22167D   26166.97708466  .00010170  00000+0  28960-3 0  9990
2 54685  97.6893 337.9295 0003522 118.7513 241.4084 15.36312169195261
DONGPO 08               
1 54686U 22167E   26166.95544118  .00009008  00000+0  27934-3 0  9999
2 54686  97.6858 335.0907 0008580 164.3647 195.7862 15.33624769195136
2022-167F               
1 54687U 22167F   26166.95299044  .00207561  18275-4  62587-3 0  9990
2 54687  97.6113 354.7184 0001522 234.6513 125.4618 15.92208325196634
DONGPO 10               
1 54689U 22167H   26166.96273434  .00009233  00000+0  27923-3 0  9991
2 54689  97.6938 337.0470 0006275 113.3902 246.8001 15.34432686195175
JILIN-1 GAOFEN 03D48    
1 54695U 22167P   26166.96105389  .00009734  00000+0  28709-3 0  9990
2 54695  97.6873 336.4227 0007607 118.3145 241.8866 15.35198751195208
STAR VIBE               
1 55009U 23001A   26166.93785521  .00012367  00000+0  28615-3 0  9999
2 55009  97.3173 231.3965 0007149 115.9373 244.2612 15.42586885192038
BRO-8                   
1 55011U 23001C   26166.94994763  .00028778  00000+0  53208-3 0  9992
2 55011  97.3218 232.1157 0006794 127.2026 232.9846 15.48992243192015
CONNECTA T1.2           
1 55012U 23001D   26166.94479539  .00034048  00000+0  59352-3 0  9995
2 55012  97.3274 237.6131 0006642 106.5105 253.6877 15.50637527192355
