OBJECT_NAME,OBJECT_ID,EPOCH,MEAN_MOTION,ECCENTRICITY,INCLINATION,RA_OF_ASC_NODE,ARG_OF_PERICENTER,MEAN_ANOMALY,EPHEMERIS_TYPE,CLASSIFICATION_TYPE,NORAD_CAT_ID,ELEMENT_SET_NO,REV_AT_EPOCH,BSTAR,MEAN_MOTION_DOT,MEAN_MOTION_DDOT
DONGPO 02,2022-098J,2026-06-13T23:59:30.986880,15.74035042,.00020347,97.5515,295.9132,282.6019,77.5017,0,U,53452,999,21429,.78990934E-3,.113495E-2,0
DONGPO 01,2022-098K,2026-06-15T23:01:07.618944,15.72246921,.00017721,97.5589,298.5709,236.2514,123.8580,0,U,53453,999,21456,.60823093E-3,.80655E-3,0
STARLINK-4400,2022-099D,2026-06-15T21:58:36.010848,15.05655701,.00012958,97.3520,286.0006,142.5630,217.5688,0,U,53468,999,21075,-.55754805E-4,-.862E-5,0
STARLINK-4621,2022-105AE,2026-06-15T22:02:35.625696,15.05657535,.00025988,97.3566,46.0166,82.4587,277.6935,0,U,53676,999,20801,-.93720791E-4,-.141E-4,0
SHERPA-LTC2,2022-107BG,2026-06-15T11:40:08.755680,14.69697907,.03940041,53.2349,227.5314,221.2720,135.7852,0,U,53754,999,20229,.24279122E-3,.4663E-4,0
CENTISPACE-1 S3,2022-108A,2026-06-15T23:26:05.413920,14.61251403,.0009298,53.5336,60.2654,351.8082,8.2740,0,U,53757,999,20135,.11919811E-3,.403E-5,0
CENTISPACE-1 S4,2022-108B,2026-06-15T23:04:16.599936,14.61932214,.00084907,53.5311,57.8517,339.8125,20.2514,0,U,53758,999,20138,.15160105E-3,.575E-5,0
BLUEWALKER-3,2022-111AL,2026-06-15T22:41:13.772256,15.38258146,.00064501,53.2299,39.8022,157.0926,203.0368,0,U,53807,999,21001,.14316304E-3,.5087E-4,0
YUNHAI-1 03,2022-115A,2026-06-16T00:00:18.811008,14.32717301,.00058139,98.5531,165.1623,58.5870,301.5882,0,U,53877,999,19534,.11751767E-3,.276E-5,0
CENTISPACE-1 S5,2022-126A,2026-06-15T22:07:55.891488,14.63012790,.00145621,54.9978,218.0227,70.1037,290.1524,0,U,54020,999,19685,.12566151E-3,.46E-5,0
CENTISPACE-1 S6,2022-126B,2026-06-15T21:57:11.916000,14.62289789,.0016411,54.9982,219.9118,70.1386,290.1375,0,U,54021,999,19681,.90462313E-4,.271E-5,0
OTB-3-GAZELLE,2022-127A,2026-06-15T22:48:08.003232,14.42674047,.00128899,98.3943,158.6733,186.9573,173.1440,0,U,54023,999,19418,.47030657E-4,.113E-5,0
ASO-S,2022-129A,2026-06-15T22:40:10.004736,14.52061219,.00157627,98.2747,172.0428,96.1905,264.1087,0,U,54029,999,19524,.51832533E-4,.165E-5,0
HJ-2E,2022-132A,2026-06-15T23:17:16.335744,15.22299988,.00207024,97.3793,171.3685,19.3375,340.8643,0,U,54035,999,20423,.30422455E-3,.6979E-4,0
COSMOS 2561,2022-137A,2026-06-15T11:38:54.060288,15.51664501,.001087,96.9179,225.5499,41.8672,318.3410,0,U,54109,999,20608,.1811E-3,.10701E-3,0
GONETS-M 23,2022-139A,2026-06-15T21:27:49.235040,12.42890823,.00208439,82.5073,349.0980,222.6321,137.3141,0,U,54150,999,16548,.16765079E-3,.33E-6,0
GONETS-M 24,2022-139B,2026-06-15T22:44:59.443872,12.42891432,.00159771,82.4989,348.1254,232.8634,127.0987,0,U,54151,999,16549,.64105406E-4,.19E-6,0
GONETS-M 25,2022-139C,2026-06-15T22:25:23.057760,12.42890015,.00198865,82.5055,348.8195,231.6874,128.2418,0,U,54152,999,16549,.95404163E-4,.23E-6,0
SKIF-D,2022-139D,2026-06-15T06:11:46.128192,5.00428011,.00073861,89.9511,96.6682,200.0238,159.9932,0,U,54153,999,6401,0,.6E-7,0
MATS,2022-147A,2026-06-15T23:38:58.634304,15.05349467,.00119063,97.6818,168.5875,195.0041,165.0834,0,U,54227,999,19758,.16708787E-3,.2333E-4,0
JILIN-1 GAOFEN 03D54,2022-155D,2026-06-15T05:00:29.412000,15.97367336,.00052791,97.6113,319.0559,263.8870,96.1805,0,U,54254,999,19998,.72719635E-3,.317969E-2,.43065491E-4
EOS-6 (OCEANSAT-3),2022-158A,2026-06-15T23:41:32.595648,14.46999847,.00012764,98.3539,265.1972,50.0822,310.0482,0,U,54361,999,18766,.76708481E-4,.235E-5,0
DONGPO 09,2022-167D,2026-06-15T23:27:00.114624,15.36312169,.00035222,97.6893,337.9295,118.7513,241.4084,0,U,54685,999,19526,.2895967E-3,.1017E-3,0
DONGPO 08,2022-167E,2026-06-15T22:55:50.117952,15.33624769,.00085808,97.6858,335.0907,164.3647,195.7862,0,U,54686,999,19513,.27934353E-3,.9008E-4,0
2022-167F,2022-167F,2026-06-15T22:52:18.374016,15.92208325,.00015229,97.6113,354.7184,234.6513,125.4618,0,U,54687,999,19663,.62586659E-3,.207561E-2,.1827484E-4
DONGPO 10,2022-167H,2026-06-15T23:06:20.246976,15.34432686,.00062756,97.6938,337.0470,113.3902,246.8001,0,U,54689,999,19517,.27922616E-3,.9233E-4,0
JILIN-1 GAOFEN 03D48,2022-167P,2026-06-15T23:03:55.056096,15.35198751,.0007607,97.6873,336.4227,118.3145,241.8866,0,U,54695,999,19520,.28708964E-3,.9734E-4,0
STAR VIBE,2023-001A,2026-06-15T22:30:30.690144,15.42586885,.00071496,97.3173,231.3965,115.9373,244.2612,0,U,55009,999,19203,.28614772E-3,.12367E-3,0
BRO-8,2023-001C,2026-06-15T22:47:55.475232,15.48992243,.00067946,97.3218,232.1157,127.2026,232.9846,0,U,55011,999,19201,.53208254E-3,.28778E-3,0
CONNECTA T1.2,2023-001D,2026-06-15T22:40:30.321696,15.50637527,.00066426,97.3274,237.6131,106.5105,253.6877,0,U,55012,999,19235,.59352452E-3,.34048E-3,0
